AKEBONO (EXOS-D)        
1 19822U 89016A   18257.58608018  .00011475  72325-6  21234-3 0  9993
2 19822  75.0306 121.0010 1834504 219.2654 126.0247 11.85781777962768
HST                     
1 20580U 90037B   18257.40571272  .00000520  00000-0  20895-4 0  9990
2 20580  28.4686 245.3004 0002793  26.1019  99.1639 15.09093185358878
POLAR                   
1 23802U 96013A   18256.61140551  .00000076  00000-0  00000+0 0  9991
2 23802  78.6396 260.0955 6994753 305.2074   7.8498  1.29844496108043
SWAS                    
1 25560U 98071A   18257.33792477  .00000170  00000-0  24629-4 0  9993
2 25560  69.8990 198.9273 0010518 238.9139 121.0985 14.93629969 73138
ORSTED                  
1 25635U 99008B   18257.53268839  .00000060  00000-0  22139-4 0  9991
2 25635  96.4527  61.5305 0137410 237.8539 120.9267 14.48099593 31710
CXO                     
1 25867U 99040B   18259.20163408  .00000421  00000-0  00000+0 0  9995
2 25867  70.5528 281.1428 6935696 240.1697   0.3287  0.37803764 17776
XMM-NEWTON              
1 25989U 99066A   18259.36836722  .00000024  00000-0  00000-0 0  9991
2 25989  70.4705 342.8400 7909709  95.7456   0.3600  0.50136734  8811
TERRA                   
1 25994U 99068A   18257.79796898  .00000626  00000-0  14900-3 0  9998
2 25994  98.2026 331.3409 0001374  97.8901 262.2465 14.57122934996874
CLUSTER II-FM7 (SAMBA)  
1 26410U 00041A   18256.99078511 -.00000141  00000-0  00000-0 0  9997
2 26410 130.9859 336.7585 4119911 164.5662   0.3127  0.44214693  7758
CLUSTER II-FM6 (SALSA)  
1 26411U 00041B   18236.79840679 -.00000368  00000-0  00000+0 0  9996
2 26411 130.1884 337.7699 4996410 171.9241 359.3818  0.44125048 19491
CLUSTER II-FM5 (RUMBA)  
1 26463U 00045A   18259.39313287 -.00000298  00000-0  00000-0 0  9991
2 26463 133.7780 336.8366 4684236 171.2573   0.2789  0.44161914  7683
CLUSTER II-FM8 (TANGO)  
1 26464U 00045B   18256.06683652 -.00000103  00000-0  00000-0 0  9994
2 26464 130.9823 336.7600 4120489 164.5544 213.2545  0.44219293  7768
ODIN                    
1 26702U 01007A   18257.60513491 -.00000118  00000-0 -36155-5 0  9994
2 26702  97.5908 274.2087 0009770 306.0806  53.9517 15.07651384959501
TIMED                   
1 26998U 01055B   18257.10913869  .00000092  00000-0  14056-4 0  9996
2 26998  74.0718 131.7889 0001032 321.9459  38.1649 14.88046441908940
RHESSI                  
1 27370U 02004A   18257.86337880  .00002090  00000-0  73736-4 0  9992
2 27370  38.0319 152.4990 0011900 144.7132 215.4428 15.30543580915924
INTEGRAL                
1 27540U 02048A   18258.60864784  .00000779  00000-0  00000+0 0  9991
2 27540  48.7843 162.9290 8588918 270.3524   0.1770  0.37590758 15996
CORIOLIS                
1 27640U 03001A   18257.63181344 -.00000018  00000-0  12403-4 0  9990
2 27640  98.7381 266.5457 0015236  82.5588  25.3235 14.18987912812411
SORCE                   
1 27651U 03004A   18257.50904969  .00000085  00000-0  22989-4 0  9990
2 27651  39.9960 309.3721 0022188 189.7659 170.2701 14.88896176848488
MOST                    
1 27843U 03031D   18257.55818726 -.00000020  00000-0  11216-4 0  9994
2 27843  98.7136 264.1781 0010698 139.6612 220.5360 14.20574355788468
SCISAT 1                
1 27858U 03036A   18257.46840704  .00000073  00000-0  15324-4 0  9997
2 27858  73.9352  11.8703 0007970 358.6900   1.4252 14.77214044812857
SWIFT                   
1 28485U 04047A   18257.16821524  .00000920  00000-0  32938-4 0  9994
2 28485  20.5560 199.7501 0011152 213.9134 146.0586 15.04187847756623
FORMOSAT-3 FM6          
1 29047U 06011A   18257.69428558  .00000032  00000-0  28758-4 0  9999
2 29047  71.9809 339.7332 0048409  88.1870 272.4809 14.28650441649685
FORMOSAT-3 FM1          
1 29048U 06011B   18257.48311892  .00000066  00000-0  42491-4 0  9996
2 29048  71.9649 251.8151 0042458  43.1966 317.2487 14.28587475652125
FORMOSAT-3 FM5          
1 29049U 06011C   18257.87054818  .00000066  00000-0  42200-4 0  9990
2 29049  72.0199  59.0426 0033573  76.6616 283.8260 14.28667091647968
FORMOSAT-3 FM3          
1 29050U 06011D   18257.44102115  .00000089  00000-0  29231-4 0  9993
2 29050  72.0142 271.5171 0048360  49.7337 310.8028 14.58702058662806
FORMOSAT-3 FM4          
1 29051U 06011E   18257.60299744  .00000091  00000-0  51311-4 0  9994
2 29051  72.0068 322.8471 0069991 313.7589  45.7767 14.28694297650514
FORMOSAT-3 FM2          
1 29052U 06011F   18257.78734593  .00000041  00000-0  32393-4 0  9994
2 29052  72.0356  34.7628 0039399  36.7045 323.6778 14.28792026648860
CLOUDSAT                
1 29107U 06016A   18257.61448824  .00000093  00000-0  27570-4 0  9999
2 29107  98.0830 200.5035 0000988 147.2174 212.9089 14.62208196658521
CALIPSO                 
1 29108U 06016B   18257.88341938  .00000118  00000-0  33883-4 0  9999
2 29108  98.2072 199.9945 0001429  78.9592 281.1769 14.60441449658574
HINODE (SOLAR-B)        
1 29479U 06041A   18257.60949311  .00000063  00000-0  20808-4 0  9999
2 29479  98.1705 263.9203 0016048 225.4163 134.5731 14.64941958639913
SJ-6C                   
1 29505U 06046A   18257.85657179  .00000606  00000-0  61555-4 0  9996
2 29505  97.8287 263.3940 0004008  41.3295 318.8220 14.94469408647771
SJ-6D                   
1 29506U 06046B   18257.67741507 -.00000529  00000-0 -44957-4 0  9999
2 29506  97.8478 262.9147 0003548  88.1310 272.0308 14.93391415647389
AGILE                   
1 31135U 07013A   18257.46206812  .00002531  00000-0  45118-4 0  9990
2 31135   2.4669 167.9209 0012803 237.0409 122.8413 15.30995818633434
AIM                     
1 31304U 07015A   18257.53289447  .00000380  00000-0  25789-4 0  9995
2 31304  97.9884 103.1523 0006130  41.3718 318.7975 15.12736889623615
FGRST (GLAST)           
1 33053U 08029A   18257.09820961  .00000538  00000-0  14103-4 0  9990
2 33053  25.5823 154.1002 0012597 132.7149 227.4448 15.11126958566035
WISE                    
1 36119U 09071A   18257.60980398  .00000771  00000-0  29844-4 0  9999
2 36119  97.4071 289.5388 0003902 123.9228 236.2384 15.29205302485682
SDO                     
1 36395U 10005A   18257.18757455 -.00000085  00000-0  00000+0 0  9990
2 36395  29.3256 132.3767 0001722  34.1574 152.1275  1.00275999 31627
CRYOSAT 2               
1 36508U 10013A   18257.59891144  .00000039  00000-0  89204-5 0  9991
2 36508  92.0305 312.3141 0005545 221.7077 138.3708 14.52174559447124
X-SAT                   
1 37389U 11015C   18257.74704614 -.00000020  00000-0  99554-5 0  9994
2 37389  98.5241 325.2777 0014221   9.1223 351.0211 14.24360355384934
GCOM-W1 (SHIZUKU)       
1 38337U 12025A   18257.42304515  .00000051  00000-0  21318-4 0  9996
2 38337  98.2072 196.2110 0002141  97.9150  12.0771 14.57113322336507
NUSTAR                  
1 38358U 12031A   18257.57220381  .00000998  00000-0  30970-4 0  9994
2 38358   6.0256 250.6954 0011760 357.3615   2.6451 14.88030816340233
RBSP A                  
1 38752U 12046A   18257.67309511 -.00000070  00000-0  83528-3 0  9990
2 38752  10.0995 341.8929 6827569 185.4781 158.7739  2.68161692 59087
RBSP B                  
1 38753U 12046B   18257.30475180 -.00000162  00000-0  15436-3 0  9992
2 38753  10.1339 355.3789 6842036 159.4189 253.5964  2.65145010 58585
NEOSSAT                 
1 39089U 13009D   18257.55415912  .00000019  00000-0  22099-4 0  9993
2 39089  98.5184 100.4512 0011916  37.4222 322.7790 14.34438799290527
IRIS                    
1 39197U 13033A   18257.48269934  .00000083  00000-0  18416-4 0  9992
2 39197  97.9417  77.4179 0028528 143.6748 216.6406 14.78559508281234
HISAKI (SPRINT-A)       
1 39253U 13049A   18257.35408313  .00000037  00000-0 -34591-4 0  9996
2 39253  29.7181 216.8877 0137325  99.1216 262.4920 13.55196840246841
CASSIOPE                
1 39265U 13055A   18257.60781331  .00004946  00000-0  14164-3 0  9993
2 39265  80.9660 263.6443 0674915  14.5056 347.4470 14.26067909256216
STSAT-3                 
1 39422U 13066G   18257.92851397  .00000424  00000-0  49778-4 0  9992
2 39422  97.5993 309.3013 0023410 162.4145 197.7864 14.89649236261627
SWARM B                 
1 39451U 13067A   18257.58063975  .00000327  00000-0  12985-4 0  9996
2 39451  87.7489 112.1046 0003885 102.4195 257.7485 15.21382818252363
SWARM A                 
1 39452U 13067B   18257.59739604  .00001263  00000-0  27343-4 0  9991
2 39452  87.3517   4.7474 0002884  79.5716 280.5866 15.43328467270152
SWARM C                 
1 39453U 13067C   18257.85668377  .00001259  00000-0  27237-4 0  9996
2 39453  87.3518   6.0809 0002823  79.1358 281.0216 15.43328998270202
BRITE-TORONTO           
1 40020U 14033L   18257.60156524  .00000043  00000-0  15924-4 0  9991
2 40020  97.7752 111.3319 0086663 320.8278  38.6674 14.66518522226681
OCO 2                   
1 40059U 14035A   18257.60562158  .00000017  00000-0  13774-4 0  9991
2 40059  98.1998 197.5384 0001468  80.9647 279.1718 14.57127984223554
BRITE-PL 2              
1 40119U 14049B   18257.26032219  .00000106  00000-0  19094-4 0  9995
2 40119  97.9166 345.2059 0018521  50.4765 309.8083 14.84320068220424
RESURS P2               
1 40360U 14087A   18257.87188012  .00000832  00000-0  28689-4 0  9991
2 40360  97.2686 348.5567 0008714 331.3665 132.8387 15.32738644208014
MMS 1                   
1 40482U 15011A   18254.43485013 -.00000893  00000-0  00000+0 0  9994
2 40482   4.9355 322.1342 9075494 159.6707 317.7652  0.35503696  9261
MMS 2                   
1 40483U 15011B   18250.99164352 -.00000755  00000-0  00000-0 0  9990
2 40483   5.0795 321.5678 9077685 160.0206 237.7474  0.35514960  9338
MMS 3                   
1 40484U 15011C   18256.91806882 -.00001067  00000-0  00000+0 0  9996
2 40484   4.8387 322.6850 9073831 159.2272 275.1752  0.35522836  9256
MMS 4                   
1 40485U 15011D   18256.91806882 -.00001066  00000-0  00000+0 0  9996
2 40485   4.8352 322.5003 9073801 159.4126 275.1663  0.35522806  9253
ASTROSAT                
1 40930U 15052A   18248.30079063  .00000552  00000-0 -11542-4 0  9990
2 40930   5.9897 303.3381 0008826  54.2595 305.8514 14.76230710158833
DAMPE                   
1 41173U 15078A   18257.92276896  .00000129  00000-0  82557-5 0  9993
2 41173  97.2954 258.2539 0013906   0.4991  56.9808 15.23722843152708
PISAT                   
1 41784U 16059B   18257.61344920  .00000078  00000-0  24209-4 0  9993
2 41784  98.1100 318.1649 0032279 171.0983 189.0798 14.63362453105037
HXMT (HUIYAN)           
1 42758U 17034A   18257.87578704  .00000292  00000-0  32248-4 0  9996
2 42758  43.0190 314.4978 0010678 314.1946  29.2313 15.08401144 68968
FLYING LAPTOP           
1 42831U 17042G   18257.62255500  .00000126  00000-0  18254-4 0  9993
2 42831  97.5869 156.5968 0012603 262.4090  97.5698 14.90889644 63656
PICSAT                  
1 43132U 18004X   18257.41334148  .00001697  00000-0  75469-4 0  9995
2 43132  97.5257 320.3030 0011046 139.8247 220.3808 15.22849508 37295
ZHANGZHENG-1 (CSES)     
1 43194U 18015C   18257.59941171  .00001289  00000-0  60968-4 0  9999
2 43194  97.3615  24.0733 0016734 194.7490 165.3267 15.21048724 34100
